KUIPER-00027            
1 63740U 25088S   25329.04866836  .00002782  00000+0  39496-3 0  9997
2 63740  51.9006 198.2141 0005071 162.6570 197.4566 14.79809069 32128
KUIPER-00028            
1 63741U 25088T   25329.00036395  .00002659  00000+0  38090-3 0  9995
2 63741  51.8983 196.4267 0004170 181.7901 178.3046 14.79570184 32551
KUIPER-00029            
1 63742U 25088U   25329.03194376  .00002941  00000+0  41199-3 0  9991
2 63742  51.9005 194.1165 0009974 133.1655 227.0143 14.80214002 32112
KUIPER-00030            
1 63743U 25088V   25329.04051532  .00006314  00000+0  85460-3 0  9996
2 63743  51.8994 213.2978 0016126  83.1537 277.1260 14.79962903 32130
KUIPER-00031            
1 63744U 25088W   25329.05495772  .00001011  00000+0  16167-3 0  9993
2 63744  51.9006 199.3047 0005615 121.5133 238.6378 14.79942860 32049
KUIPER-00032            
1 63745U 25088X   25328.77788402  .00016989  00000+0  53697-3 0  9996
2 63745  51.8695 169.6586 0005638 122.0892 238.0640 15.32896706 33431
KUIPER-00033            
1 63746U 25088Y   25329.09009500  .00003383  00000+0  47227-3 0  9994
2 63746  51.8995 229.1337 0003946 167.6128 192.4932 14.79961314 32117
KUIPER-00034            
1 63747U 25088Z   25328.98870344 -.00011829  00000+0 -16432-2 0  9993
2 63747  51.9002 192.0262 0003328 115.2350 244.8956 14.76799468 32308
